{
  "type": "FeatureCollection",
  "features": [
    {
      "type": "Feature",
      "properties": {
        "norad_id": 31005,
        "name": "FENGYUN 1C DEB",
        "group": "fengyun-1c-debris",
        "lat": -63.92025491686126,
        "lon": -72.19909654239886,
        "alt_km": 899.8796824420506,
        "timestamp": "2025-12-18T13:51:49.963865+00:00",
        "meta_object_name": "FENGYUN 1C DEB",
        "meta_object_id": "1999-025BCX",
        "meta_epoch": "2025-12-17T07:26:34.689408",
        "meta_mean_motion": 13.83292529,
        "meta_eccentricity": 0.01806567,
        "meta_inclination": 98.613,
        "meta_ra_of_asc_node": 124.6779,
        "meta_arg_of_pericenter": 312.9116,
        "meta_mean_anomaly": 105.4658,
        "meta_ephemeris_type": 0,
        "meta_classification_type": "U",
        "meta_norad_cat_id": 31005,
        "meta_element_set_no": 999,
        "meta_rev_at_epoch": 94344,
        "meta_bstar": 0.0010774302,
        "meta_mean_motion_dot": 1.301e-05,
        "meta_mean_motion_ddot": 0,
        "tle_line1": "1 31005U 99025BCX 25351.31012372  .00001301  00000+0  10774-2 0  9994",
        "tle_line2": "2 31005  98.6130 124.6779 0180656 312.9116 105.4658 13.83292529943440"
      },
      "geometry": {
        "type": "Point",
        "coordinates": [
          -72.19909654239886,
          -63.92025491686126
        ]
      }
    },
    {
      "type": "Feature",
      "properties": {
        "norad_id": 31007,
        "name": "FENGYUN 1C DEB",
        "group": "fengyun-1c-debris",
        "lat": 79.29438687181731,
        "lon": -147.00213203810637,
        "alt_km": 678.724806242858,
        "timestamp": "2025-12-18T13:51:49.963876+00:00",
        "meta_object_name": "FENGYUN 1C DEB",
        "meta_object_id": "1999-025BCZ",
        "meta_epoch": "2025-12-17T22:36:34.428960",
        "meta_mean_motion": 14.58750269,
        "meta_eccentricity": 0.0067157,
        "meta_inclination": 98.087,
        "meta_ra_of_asc_node": 343.6082,
        "meta_arg_of_pericenter": 22.1232,
        "meta_mean_anomaly": 338.2842,
        "meta_ephemeris_type": 0,
        "meta_classification_type": "U",
        "meta_norad_cat_id": 31007,
        "meta_element_set_no": 999,
        "meta_rev_at_epoch": 98170,
        "meta_bstar": 0.0017164755,
        "meta_mean_motion_dot": 8.229e-05,
        "meta_mean_motion_ddot": 0,
        "tle_line1": "1 31007U 99025BCZ 25351.94206515  .00008229  00000+0  17165-2 0  9996",
        "tle_line2": "2 31007  98.0870 343.6082 0067157  22.1232 338.2842 14.58750269981701"
      },
      "geometry": {
        "type": "Point",
        "coordinates": [
          -147.00213203810637,
          79.29438687181731
        ]
      }
    },
    {
      "type": "Feature",
      "properties": {
        "norad_id": 31009,
        "name": "FENGYUN 1C DEB",
        "group": "fengyun-1c-debris",
        "lat": -41.19416909167382,
        "lon": 160.36408352937357,
        "alt_km": 860.4946090705598,
        "timestamp": "2025-12-18T13:51:49.963886+00:00",
        "meta_object_name": "FENGYUN 1C DEB",
        "meta_object_id": "1999-025BDB",
        "meta_epoch": "2025-12-17T23:21:19.161216",
        "meta_mean_motion": 14.00366274,
        "meta_eccentricity": 0.00529928,
        "meta_inclination": 98.8967,
        "meta_ra_of_asc_node": 347.6557,
        "meta_arg_of_pericenter": 222.4385,
        "meta_mean_anomaly": 193.3493,
        "meta_ephemeris_type": 0,
        "meta_classification_type": "U",
        "meta_norad_cat_id": 31009,
        "meta_element_set_no": 999,
        "meta_rev_at_epoch": 95934,
        "meta_bstar": 6.8742306e-05,
        "meta_mean_motion_dot": 6e-07,
        "meta_mean_motion_ddot": 0,
        "tle_line1": "1 31009U 99025BDB 25351.97313844  .00000060  00000+0  68742-4 0  9999",
        "tle_line2": "2 31009  98.8967 347.6557 0052992 222.4385 193.3493 14.00366274959347"
      },
      "geometry": {
        "type": "Point",
        "coordinates": [
          160.36408352937357,
          -41.19416909167382
        ]
      }
    },
    {
      "type": "Feature",
      "properties": {
        "norad_id": 31010,
        "name": "FENGYUN 1C DEB",
        "group": "fengyun-1c-debris",
        "lat": 73.93863108734257,
        "lon": 7.687627658090807,
        "alt_km": 840.6381293303239,
        "timestamp": "2025-12-18T13:51:49.963897+00:00",
        "meta_object_name": "FENGYUN 1C DEB",
        "meta_object_id": "1999-025BDC",
        "meta_epoch": "2025-12-18T04:58:29.569152",
        "meta_mean_motion": 14.25885958,
        "meta_eccentricity": 0.01134009,
        "meta_inclination": 101.7245,
        "meta_ra_of_asc_node": 141.0308,
        "meta_arg_of_pericenter": 340.1245,
        "meta_mean_anomaly": 19.5524,
        "meta_ephemeris_type": 0,
        "meta_classification_type": "U",
        "meta_norad_cat_id": 31010,
        "meta_element_set_no": 999,
        "meta_rev_at_epoch": 95707,
        "meta_bstar": 0.0027751703,
        "meta_mean_motion_dot": 7.008e-05,
        "meta_mean_motion_ddot": 0,
        "tle_line1": "1 31010U 99025BDC 25352.20728668  .00007008  00000+0  27752-2 0  9995",
        "tle_line2": "2 31010 101.7245 141.0308 0113400 340.1245  19.5524 14.25885958957071"
      },
      "geometry": {
        "type": "Point",
        "coordinates": [
          7.687627658090807,
          73.93863108734257
        ]
      }
    },
    {
      "type": "Feature",
      "properties": {
        "norad_id": 31012,
        "name": "FENGYUN 1C DEB",
        "group": "fengyun-1c-debris",
        "lat": -62.31461658640203,
        "lon": 53.394430571582106,
        "alt_km": 748.338731280769,
        "timestamp": "2025-12-18T13:51:49.963907+00:00",
        "meta_object_name": "FENGYUN 1C DEB",
        "meta_object_id": "1999-025BDE",
        "meta_epoch": "2025-12-18T05:01:48.831744",
        "meta_mean_motion": 14.27868288,
        "meta_eccentricity": 0.00814012,
        "meta_inclination": 98.9118,
        "meta_ra_of_asc_node": 250.4196,
        "meta_arg_of_pericenter": 235.3473,
        "meta_mean_anomaly": 277.2013,
        "meta_ephemeris_type": 0,
        "meta_classification_type": "U",
        "meta_norad_cat_id": 31012,
        "meta_element_set_no": 999,
        "meta_rev_at_epoch": 97825,
        "meta_bstar": 0.00015031533,
        "meta_mean_motion_dot": 3.38e-06,
        "meta_mean_motion_ddot": 0,
        "tle_line1": "1 31012U 99025BDE 25352.20959296  .00000338  00000+0  15032-3 0  9998",
        "tle_line2": "2 31012  98.9118 250.4196 0081401 235.3473 277.2013 14.27868288978250"
      },
      "geometry": {
        "type": "Point",
        "coordinates": [
          53.394430571582106,
          -62.31461658640203
        ]
      }
    },
    {
      "type": "Feature",
      "properties": {
        "norad_id": 31014,
        "name": "FENGYUN 1C DEB",
        "group": "fengyun-1c-debris",
        "lat": -63.129350023741345,
        "lon": 130.04708028609136,
        "alt_km": 880.8463248282014,
        "timestamp": "2025-12-18T13:51:49.963917+00:00",
        "meta_object_name": "FENGYUN 1C DEB",
        "meta_object_id": "1999-025BDG",
        "meta_epoch": "2025-12-18T04:11:38.040576",
        "meta_mean_motion": 13.98493702,
        "meta_eccentricity": 0.00880693,
        "meta_inclination": 98.869,
        "meta_ra_of_asc_node": 327.6057,
        "meta_arg_of_pericenter": 178.3961,
        "meta_mean_anomaly": 197.7589,
        "meta_ephemeris_type": 0,
        "meta_classification_type": "U",
        "meta_norad_cat_id": 31014,
        "meta_element_set_no": 999,
        "meta_rev_at_epoch": 95912,
        "meta_bstar": 4.1147109e-05,
        "meta_mean_motion_dot": 1.9e-07,
        "meta_mean_motion_ddot": 0,
        "tle_line1": "1 31014U 99025BDG 25352.17474584  .00000019  00000+0  41147-4 0  9991",
        "tle_line2": "2 31014  98.8690 327.6057 0088069 178.3961 197.7589 13.98493702959125"
      },
      "geometry": {
        "type": "Point",
        "coordinates": [
          130.04708028609136,
          -63.129350023741345
        ]
      }
    },
    {
      "type": "Feature",
      "properties": {
        "norad_id": 31016,
        "name": "FENGYUN 1C DEB",
        "group": "fengyun-1c-debris",
        "lat": -49.54320625003244,
        "lon": 18.25218072246719,
        "alt_km": 748.0478056940065,
        "timestamp": "2025-12-18T13:51:49.963927+00:00",
        "meta_object_name": "FENGYUN 1C DEB",
        "meta_object_id": "1999-025BDJ",
        "meta_epoch": "2025-12-18T07:26:44.513088",
        "meta_mean_motion": 14.3050357,
        "meta_eccentricity": 0.01120166,
        "meta_inclination": 98.4361,
        "meta_ra_of_asc_node": 7.9707,
        "meta_arg_of_pericenter": 257.5449,
        "meta_mean_anomaly": 114.837,
        "meta_ephemeris_type": 0,
        "meta_classification_type": "U",
        "meta_norad_cat_id": 31016,
        "meta_element_set_no": 999,
        "meta_rev_at_epoch": 97550,
        "meta_bstar": 0.00023510558,
        "meta_mean_motion_dot": 6.12e-06,
        "meta_mean_motion_ddot": 0,
        "tle_line1": "1 31016U 99025BDJ 25352.31023742  .00000612  00000+0  23511-3 0  9998",
        "tle_line2": "2 31016  98.4361   7.9707 0112016 257.5449 114.8370 14.30503570975509"
      },
      "geometry": {
        "type": "Point",
        "coordinates": [
          18.25218072246719,
          -49.54320625003244
        ]
      }
    }
  ]
}